ASTROCAST-0103          
1 47487U 21006CC  26068.70056502  .00087857  00000+0  63760-3 0  9995
2 47487  97.2627 138.0845 0005706 147.8600 212.3013 15.73114428285528
STARLINK-11670 [DTC]    
1 64237U 25119E   26068.66670139  .00009150  00000+0  74814-4 0  9992
2 64237  42.9999 209.5420 0001555 271.4302 241.8866 15.70811141  5945
