[{"OBJECT_NAME":"ASTROCAST-0103","OBJECT_ID":"2021-006CC","EPOCH":"2026-03-09T16:48:48.818592","MEAN_MOTION":15.73114428,"ECCENTRICITY":0.00057063,"INCLINATION":97.2627,"RA_OF_ASC_NODE":138.0845,"ARG_OF_PERICENTER":147.86,"MEAN_ANOMALY":212.3013,"EPHEMERIS_TYPE":0,"CLASSIFICATION_TYPE":"U","NORAD_CAT_ID":47487,"ELEMENT_SET_NO":999,"REV_AT_EPOCH":28552,"BSTAR":0.00063759595,"MEAN_MOTION_DOT":0.00087857,"MEAN_MOTION_DDOT":0},{"OBJECT_NAME":"STARLINK-11670 [DTC]","OBJECT_ID":"2025-119E","EPOCH":"2026-03-09T16:00:03.000096","MEAN_MOTION":15.70811141,"ECCENTRICITY":0.00015546,"INCLINATION":42.9999,"RA_OF_ASC_NODE":209.542,"ARG_OF_PERICENTER":271.4302,"MEAN_ANOMALY":241.8866,"EPHEMERIS_TYPE":0,"CLASSIFICATION_TYPE":"U","NORAD_CAT_ID":64237,"ELEMENT_SET_NO":999,"REV_AT_EPOCH":594,"BSTAR":7.4814364e-5,"MEAN_MOTION_DOT":9.15e-5,"MEAN_MOTION_DDOT":0}]
